[
    {
        "Altitude(m)": 705082.186406573,
        "Argument of Periapsis(deg)": 0.0034170363559881197,
        "Eccentricity": 0.0,
        "Inclination(deg)": 45.0,
        "Latitude(deg)": -9.193468021022056,
        "Longitude(deg)": 115.5255673107454,
        "Mean Anomaly(deg)": -12.90363500575582,
        "RAAN(deg)": 224.99677441756253,
        "Satellite Name": "Constellation 1 1011",
        "Satellite Number": 1011,
        "Semi-Major Axis(m)": 7083131.272910544,
        "Time(s)": 57
    },
    {
        "Altitude(m)": 705072.4706117557,
        "Argument of Periapsis(deg)": 0.003476984362233526,
        "Eccentricity": 0.0,
        "Inclination(deg)": 45.0,
        "Latitude(deg)": -9.150841078991853,
        "Longitude(deg)": 115.5654081947806,
        "Mean Anomaly(deg)": -12.842933865505858,
        "RAAN(deg)": 224.99671782839698,
        "Satellite Name": "Constellation 1 1011",
        "Satellite Number": 1011,
        "Semi-Major Axis(m)": 7083131.272910544,
        "Time(s)": 58
    },
    {
        "Altitude(m)": 705062.7720427356,
        "Argument of Periapsis(deg)": 0.003536932368478932,
        "Eccentricity": 0.0,
        "Inclination(deg)": 45.0,
        "Latitude(deg)": -9.108208624070906,
        "Longitude(deg)": 115.6052385432153,
        "Mean Anomaly(deg)": -12.782232725255893,
        "RAAN(deg)": 224.99666123923137,
        "Satellite Name": "Constellation 1 1011",
        "Satellite Number": 1011,
        "Semi-Major Axis(m)": 7083131.272910544,
        "Time(s)": 59
    },
    {
        "Altitude(m)": 705053.0907249008,
        "Argument of Periapsis(deg)": 0.003596880374724337,
        "Eccentricity": 0.0,
        "Inclination(deg)": 45.0,
        "Latitude(deg)": -9.065570683201726,
        "Longitude(deg)": 115.64505874282048,
        "Mean Anomaly(deg)": -12.721531585006137,
        "RAAN(deg)": 224.99660465006582,
        "Satellite Name": "Constellation 1 1011",
        "Satellite Number": 1011,
        "Semi-Major Axis(m)": 7083131.272910544,
        "Time(s)": 60
    },
    {
        "Altitude(m)": 705043.426683566,
        "Argument of Periapsis(deg)": 0.0036568283809697427,
        "Eccentricity": 0.0,
        "Inclination(deg)": 45.0,
        "Latitude(deg)": -9.022927283306734,
        "Longitude(deg)": 115.68486867605554,
        "Mean Anomaly(deg)": -12.660830444756174,
        "RAAN(deg)": 224.99654806090027,
        "Satellite Name": "Constellation 1 1011",
        "Satellite Number": 1011,
        "Semi-Major Axis(m)": 7083131.272910544,
        "Time(s)": 61
    },
    {
        "Altitude(m)": 705033.7799439648,
        "Argument of Periapsis(deg)": 0.003716776387215149,
        "Eccentricity": 0.0,
        "Inclination(deg)": 45.0,
        "Latitude(deg)": -8.980278451289495,
        "Longitude(deg)": 115.7246683934554,
        "Mean Anomaly(deg)": -12.600129304506336,
        "RAAN(deg)": 224.99649147173469,
        "Satellite Name": "Constellation 1 1011",
        "Satellite Number": 1011,
        "Semi-Major Axis(m)": 7083131.272910544,
        "Time(s)": 62
    },
    {
        "Altitude(m)": 705024.1505312527,
        "Argument of Periapsis(deg)": 0.003776724393460554,
        "Eccentricity": 0.0,
        "Inclination(deg)": 45.0,
        "Latitude(deg)": -8.937624214033974,
        "Longitude(deg)": 115.7644579455345,
        "Mean Anomaly(deg)": -12.539428164256348,
        "RAAN(deg)": 224.99643488256913,
        "Satellite Name": "Constellation 1 1011",
        "Satellite Number": 1011,
        "Semi-Major Axis(m)": 7083131.272910544,
        "Time(s)": 63
    },
    {
        "Altitude(m)": 705014.53847049,
        "Argument of Periapsis(deg)": 0.003836672399705959,
        "Eccentricity": 0.0,
        "Inclination(deg)": 45.0,
        "Latitude(deg)": -8.894964598405336,
        "Longitude(deg)": 115.80423738278617,
        "Mean Anomaly(deg)": -12.478727024006488,
        "RAAN(deg)": 224.99637829340352,
        "Satellite Name": "Constellation 1 1011",
        "Satellite Number": 1011,
        "Semi-Major Axis(m)": 7083131.272910544,
        "Time(s)": 64
    },
    {
        "Altitude(m)": 705004.9437866593,
        "Argument of Periapsis(deg)": 0.003896620405951365,
        "Eccentricity": 0.0,
        "Inclination(deg)": 45.0,
        "Latitude(deg)": -8.85229963124932,
        "Longitude(deg)": 115.84400675568342,
        "Mean Anomaly(deg)": -12.41802588375655,
        "RAAN(deg)": 224.99632170423797,
        "Satellite Name": "Constellation 1 1011",
        "Satellite Number": 1011,
        "Semi-Major Axis(m)": 7083131.272910544,
        "Time(s)": 65
    },
    {
        "Altitude(m)": 704995.3665046686,
        "Argument of Periapsis(deg)": 0.003956568412196771,
        "Eccentricity": 0.0,
        "Inclination(deg)": 45.0,
        "Latitude(deg)": -8.809629339392993,
        "Longitude(deg)": 115.88376611467838,
        "Mean Anomaly(deg)": -12.357324743506663,
        "RAAN(deg)": 224.9962651150724,
        "Satellite Name": "Constellation 1 1011",
        "Satellite Number": 1011,
        "Semi-Major Axis(m)": 7083131.272910544,
        "Time(s)": 66
    },
    {
        "Altitude(m)": 704985.8066493322,
        "Argument of Periapsis(deg)": 0.004016516418442176,
        "Eccentricity": 0.0,
        "Inclination(deg)": 45.0,
        "Latitude(deg)": -8.766953749644284,
        "Longitude(deg)": 115.92351534210573,
        "Mean Anomaly(deg)": -12.296623603256828,
        "RAAN(deg)": 224.99620852590684,
        "Satellite Name": "Constellation 1 1011",
        "Satellite Number": 1011,
        "Semi-Major Axis(m)": 7083131.272910544,
        "Time(s)": 67
    },
    {
        "Altitude(m)": 704976.2642453853,
        "Argument of Periapsis(deg)": 0.004076464424687581,
        "Eccentricity": 0.0,
        "Inclination(deg)": 45.0,
        "Latitude(deg)": -8.724272888792617,
        "Longitude(deg)": 115.9632548245709,
        "Mean Anomaly(deg)": -12.23592246300684,
        "RAAN(deg)": 224.99615193674123,
        "Satellite Name": "Constellation 1 1011",
        "Satellite Number": 1011,
        "Semi-Major Axis(m)": 7083131.272910544,
        "Time(s)": 68
    },
    {
        "Altitude(m)": 704966.7393174834,
        "Argument of Periapsis(deg)": 0.004136412430932987,
        "Eccentricity": 0.0,
        "Inclination(deg)": 45.0,
        "Latitude(deg)": -8.681586783608699,
        "Longitude(deg)": 116.00298444436764,
        "Mean Anomaly(deg)": -12.175221322757004,
        "RAAN(deg)": 224.99609534757568,
        "Satellite Name": "Constellation 1 1011",
        "Satellite Number": 1011,
        "Semi-Major Axis(m)": 7083131.272910544,
        "Time(s)": 69
    },
    {
        "Altitude(m)": 704957.2318901957,
        "Argument of Periapsis(deg)": 0.004196360437178394,
        "Eccentricity": 0.0,
        "Inclination(deg)": 45.0,
        "Latitude(deg)": -8.638895460844507,
        "Longitude(deg)": 116.04270425186674,
        "Mean Anomaly(deg)": -12.114520182507144,
        "RAAN(deg)": 224.99603875841012,
        "Satellite Name": "Constellation 1 1011",
        "Satellite Number": 1011,
        "Semi-Major Axis(m)": 7083131.272910544,
        "Time(s)": 70
    },
    {
        "Altitude(m)": 704947.7419880095,
        "Argument of Periapsis(deg)": 0.004256308443423799,
        "Eccentricity": 0.0,
        "Inclination(deg)": 45.0,
        "Latitude(deg)": -8.596198947233548,
        "Longitude(deg)": 116.08241429741881,
        "Mean Anomaly(deg)": -12.053819042257182,
        "RAAN(deg)": 224.99598216924454,
        "Satellite Name": "Constellation 1 1011",
        "Satellite Number": 1011,
        "Semi-Major Axis(m)": 7083131.272910544,
        "Time(s)": 71
    },
    {
        "Altitude(m)": 704938.2696353236,
        "Argument of Periapsis(deg)": 0.004316256449669204,
        "Eccentricity": 0.0,
        "Inclination(deg)": 45.0,
        "Latitude(deg)": -8.553497269491215,
        "Longitude(deg)": 116.12211463135415,
        "Mean Anomaly(deg)": -11.993117902007318,
        "RAAN(deg)": 224.995925580079,
        "Satellite Name": "Constellation 1 1011",
        "Satellite Number": 1011,
        "Semi-Major Axis(m)": 7083131.272910544,
        "Time(s)": 72
    },
    {
        "Altitude(m)": 704928.8148564646,
        "Argument of Periapsis(deg)": 0.00437620445591461,
        "Eccentricity": 0.0,
        "Inclination(deg)": 45.0,
        "Latitude(deg)": -8.51079045431429,
        "Longitude(deg)": 116.16180530398331,
        "Mean Anomaly(deg)": -11.932416761757356,
        "RAAN(deg)": 224.99586899091344,
        "Satellite Name": "Constellation 1 1011",
        "Satellite Number": 1011,
        "Semi-Major Axis(m)": 7083131.272910544,
        "Time(s)": 73
    },
    {
        "Altitude(m)": 704919.3776756654,
        "Argument of Periapsis(deg)": 0.004436152462160016,
        "Eccentricity": 0.0,
        "Inclination(deg)": 45.0,
        "Latitude(deg)": -8.46807852838156,
        "Longitude(deg)": 116.20148619749978,
        "Mean Anomaly(deg)": -11.871715621507496,
        "RAAN(deg)": 224.99581240174786,
        "Satellite Name": "Constellation 1 1011",
        "Satellite Number": 1011,
        "Semi-Major Axis(m)": 7083131.272910544,
        "Time(s)": 74
    },
    {
        "Altitude(m)": 704909.9581170784,
        "Argument of Periapsis(deg)": 0.0044961004684054215,
        "Eccentricity": 0.0,
        "Inclination(deg)": 45.0,
        "Latitude(deg)": -8.425361518353794,
        "Longitude(deg)": 116.2411576983684,
        "Mean Anomaly(deg)": -11.811014481257534,
        "RAAN(deg)": 224.99575581258227,
        "Satellite Name": "Constellation 1 1011",
        "Satellite Number": 1011,
        "Semi-Major Axis(m)": 7083131.272910544,
        "Time(s)": 75
    }
]